[{"OBJECT_NAME":"STARLINK-3721","OBJECT_ID":"2022-029AY","EPOCH":"2026-03-09T06:34:34.208256","MEAN_MOTION":15.0883896,"ECCENTRICITY":0.00013808,"INCLINATION":53.2182,"RA_OF_ASC_NODE":70.9864,"ARG_OF_PERICENTER":93.7972,"MEAN_ANOMALY":266.3178,"EPHEMERIS_TYPE":0,"CLASSIFICATION_TYPE":"U","NORAD_CAT_ID":52134,"ELEMENT_SET_NO":999,"REV_AT_EPOCH":22087,"BSTAR":3.2336232e-5,"MEAN_MOTION_DOT":2.27e-6,"MEAN_MOTION_DDOT":0},{"OBJECT_NAME":"IRIDIUM 33 DEB","OBJECT_ID":"1997-051QE","EPOCH":"2026-03-07T09:35:18.798432","MEAN_MOTION":15.07266806,"ECCENTRICITY":0.0013423,"INCLINATION":86.3519,"RA_OF_ASC_NODE":312.8742,"ARG_OF_PERICENTER":171.2899,"MEAN_ANOMALY":188.8573,"EPHEMERIS_TYPE":0,"CLASSIFICATION_TYPE":"U","NORAD_CAT_ID":35484,"ELEMENT_SET_NO":999,"REV_AT_EPOCH":63287,"BSTAR":0.0040001,"MEAN_MOTION_DOT":0.00060878,"MEAN_MOTION_DDOT":0}]
